{
    "CCSDS_OMM_VERS": "3.0",
    "COMMENT": "GENERATED VIA SPACE-TRACK.ORG API",
    "CREATION_DATE": "2025-11-23T14:26:32",
    "ORIGINATOR": "18 SPCS",
    "OBJECT_NAME": "NAVSTAR 75 (USA 265)",
    "OBJECT_ID": "2015-062A",
    "CENTER_NAME": "EARTH",
    "REF_FRAME": "TEME",
    "TIME_SYSTEM": "UTC",
    "MEAN_ELEMENT_THEORY": "SGP4",
    "EPOCH": "2025-11-22T20:48:22.366656",
    "MEAN_MOTION": "2.00567211",
    "ECCENTRICITY": "0.01102070",
    "INCLINATION": "56.8180",
    "RA_OF_ASC_NODE": "38.7712",
    "ARG_OF_PERICENTER": "229.4078",
    "MEAN_ANOMALY": "129.6771",
    "EPHEMERIS_TYPE": "0",
    "CLASSIFICATION_TYPE": "U",
    "NORAD_CAT_ID": "41019",
    "ELEMENT_SET_NO": "999",
    "REV_AT_EPOCH": "7369",
    "BSTAR": "0.00000000000000",
    "MEAN_MOTION_DOT": "-0.00000065",
    "MEAN_MOTION_DDOT": "0.0000000000000",
    "SEMIMAJOR_AXIS": "26560.029",
    "PERIOD": "717.964",
    "APOAPSIS": "20474.604",
    "PERIAPSIS": "19889.184",
    "OBJECT_TYPE": "PAYLOAD",
    "RCS_SIZE": "LARGE",
    "COUNTRY_CODE": "US",
    "LAUNCH_DATE": "2015-10-31",
    "SITE": "AFETR",
    "DECAY_DATE": null,
    "FILE": "4895625",
    "GP_ID": "303302423",
    "TLE_LINE0": "0 NAVSTAR 75 (USA 265)",
    "TLE_LINE1": "1 41019U 15062A   25326.86692554 -.00000065  00000-0  00000+0 0  9993",
    "TLE_LINE2": "2 41019  56.8180  38.7712 0110207 229.4078 129.6771  2.00567211 73698"
}